NORAD_CAT_ID,OBJECT_NAME,OBJECT_TYPE,EPOCH,MEAN_MOTION,ECCENTRICITY,INCLINATION,RA_OF_ASC_NODE,ARG_OF_PERICENTER,MEAN_ANOMALY,BSTAR,MEAN_MOTION_DOT,MEAN_MOTION_DDOT,TLE_LINE0,TLE_LINE1,TLE_LINE2,SEMIMAJOR_AXIS,PERIOD,APOGEE,PERIGEE,DECAYED
55949.0,STARLINK-5899,PAYLOAD,2024-06-21 13:52:29,14.98325543,0.0003141,69.9997,43.2743,268.6521,91.4279,9.456e-05,1.035e-05,0.0,0 STARLINK-5899,1 55949U 23037AM  24173.57812426  .00001035  00000-0  94560-4 0  9996,2 55949  69.9997  43.2743 0003141 268.6521  91.4279 14.98325543 70682,6950.207,96.107,574.255,569.889,0.0
55949.0,STARLINK-5899,PAYLOAD,2024-06-21 20:17:01,14.98330522,0.0003152,69.9996,42.6008,268.4934,91.5864,0.00011699,1.303e-05,0.0,0 STARLINK-5899,1 55949U 23037AM  24173.84516089  .00001303  00000-0  11699-3 0  9991,2 55949  69.9996  42.6008 0003152 268.4934  91.5864 14.98330522 71063,6950.191,96.107,574.247,569.866,0.0
55949.0,STARLINK-5899,PAYLOAD,2024-06-21 21:53:09,14.98332539,0.0003165,69.9996,42.4325,268.6145,91.4652,8.3199e-05,9e-06,0.0,0 STARLINK-5899,1 55949U 23037AM  24173.91192048  .00000900  00000-0  83199-4 0  9991,2 55949  69.9996  42.4325 0003165 268.6145  91.4652 14.98332539 70730,6950.185,96.107,574.25,569.85,0.0
55949.0,STARLINK-5899,PAYLOAD,2024-06-22 13:54:30,14.98331687,0.000314,69.9996,40.7492,268.2932,91.7868,-1.1154e-05,-2.26e-06,0.0,0 STARLINK-5899,1 55949U 23037AM  24174.57952225 -.00000226  00000-0 -11154-4 0  9990,2 55949  69.9996  40.7492 0003140 268.2932  91.7868 14.98331687 70835,6950.188,96.107,574.235,569.87,0.0
55949.0,STARLINK-5899,PAYLOAD,2024-06-22 20:19:02,14.98329256,0.0003165,69.9996,40.0758,268.7716,91.308,9.9707e-05,1.097e-05,0.0,0 STARLINK-5899,1 55949U 23037AM  24174.84656160  .00001097  00000-0  99707-4 0  9994,2 55949  69.9996  40.0758 0003165 268.7716  91.3080 14.98329256 71219,6950.195,96.107,574.26,569.86,0.0
55949.0,STARLINK-5899,PAYLOAD,2024-06-22 21:55:10,14.98330156,0.0003167,69.9996,39.9075,268.8184,91.2612,0.00010008,1.101e-05,0.0,0 STARLINK-5899,1 55949U 23037AM  24174.91332104  .00001101  00000-0  10008-3 0  9993,2 55949  69.9996  39.9075 0003167 268.8184  91.2612 14.98330156 70883,6950.192,96.107,574.259,569.856,0.0
55949.0,STARLINK-5899,PAYLOAD,2024-06-23 13:56:31,14.9833096,0.0003148,69.9996,38.2243,270.1326,89.9472,-2.198e-05,-3.55e-06,0.0,0 STARLINK-5899,1 55949U 23037AM  24175.58092265 -.00000355  00000-0 -21980-4 0  9992,2 55949  69.9996  38.2243 0003148 270.1326  89.9472 14.98330960 70987,6950.19,96.107,574.243,569.867,0.0
55949.0,STARLINK-5899,PAYLOAD,2024-06-23 20:21:03,14.98334135,0.000315,69.9996,37.5509,269.6361,90.4437,3.4004e-05,3.13e-06,0.0,0 STARLINK-5899,1 55949U 23037AM  24175.84795885  .00000313  00000-0  34004-4 0  9992,2 55949  69.9996  37.5509 0003150 269.6361  90.4437 14.98334135 71368,6950.18,96.107,574.234,569.856,0.0
55949.0,STARLINK-5899,PAYLOAD,2024-06-23 21:57:11,14.98334098,0.0003177,69.9996,37.3825,270.5143,89.5652,3.7586e-05,3.56e-06,0.0,0 STARLINK-5899,1 55949U 23037AM  24175.91471866  .00000356  00000-0  37586-4 0  9995,2 55949  69.9996  37.3825 0003177 270.5143  89.5652 14.98334098 71035,6950.18,96.107,574.253,569.837,0.0
55949.0,STARLINK-5899,PAYLOAD,2024-06-24 02:45:36,14.98328332,0.000313,69.9995,36.8776,271.1788,88.9012,-6.1875e-05,-8.31e-06,0.0,0 STARLINK-5899,1 55949U 23037AM  24176.11500433 -.00000831  00000-0 -61875-4 0  9999,2 55949  69.9995  36.8776 0003130 271.1788  88.9012 14.98328332 71402,6950.198,96.107,574.238,569.888,0.0
55949.0,STARLINK-5899,PAYLOAD,2024-06-24 12:22:26,14.98307892,0.000318,69.9995,35.8676,267.3679,92.7116,-0.00031221,-3.814e-05,0.0,0 STARLINK-5899,1 55949U 23037AM  24176.51558609 -.00003814  00000-0 -31221-3 0  9996,2 55949  69.9995  35.8676 0003180 267.3679  92.7116 14.98307892 71463,6950.261,96.108,574.336,569.916,0.0
55949.0,STARLINK-5899,PAYLOAD,2024-06-24 13:58:34,14.9830664,0.0003205,69.9995,35.6993,267.2536,92.8256,-0.00027422,-3.361e-05,0.0,0 STARLINK-5899,1 55949U 23037AM  24176.58234685 -.00003361  00000-0 -27422-3 0  9993,2 55949  69.9995  35.6993 0003205 267.2536  92.8256 14.98306640 71132,6950.265,96.108,574.358,569.903,0.0
55949.0,STARLINK-5899,PAYLOAD,2024-06-24 20:23:06,14.98316432,0.0003208,69.9995,35.0259,267.803,92.2761,-8.3984e-05,-1.095e-05,0.0,0 STARLINK-5899,1 55949U 23037AM  24176.84937930 -.00001095  00000-0 -83984-4 0  9993,2 55949  69.9995  35.0259 0003208 267.8030  92.2761 14.98316432 71516,6950.235,96.108,574.329,569.87,0.0
55949.0,STARLINK-5899,PAYLOAD,2024-06-24 21:59:14,14.98316723,0.0003215,69.9995,34.8576,267.9385,92.1406,-8.613e-05,-1.12e-05,0.0,0 STARLINK-5899,1 55949U 23037AM  24176.91613978 -.00001120  00000-0 -86130-4 0  9999,2 55949  69.9995  34.8576 0003215 267.9385  92.1406 14.98316723 71188,6950.234,96.108,574.333,569.864,0.0
55949.0,STARLINK-5899,PAYLOAD,2024-06-25 12:24:26,14.98331511,0.0003221,69.9994,33.3427,267.7679,92.3111,2.1362e-05,1.62e-06,0.0,0 STARLINK-5899,1 55949U 23037AM  24177.51697109  .00000162  00000-0  21362-4 0  9993,2 55949  69.9994  33.3427 0003221 267.7679  92.3111 14.98331511 71612,6950.188,96.107,574.292,569.815,0.0
55949.0,STARLINK-5899,PAYLOAD,2024-06-25 14:00:34,14.98331549,0.0003205,69.9994,33.1743,267.6482,92.431,4.7304e-05,4.71e-06,0.0,0 STARLINK-5899,1 55949U 23037AM  24177.58373066  .00000471  00000-0  47304-4 0  9990,2 55949  69.9994  33.1743 0003205 267.6482  92.4310 14.98331549 71280,6950.188,96.107,574.281,569.826,0.0
55949.0,STARLINK-5899,PAYLOAD,2024-06-25 22:01:14,14.98335645,0.0003196,69.9995,32.3326,267.1779,92.9014,0.00016558,1.883e-05,0.0,0 STARLINK-5899,1 55949U 23037AM  24177.91752718  .00001883  00000-0  16558-3 0  9996,2 55949  69.9995  32.3326 0003196 267.1779  92.9014 14.98335645 71335,6950.175,96.107,574.262,569.819,0.0
55949.0,STARLINK-5899,PAYLOAD,2024-06-26 12:26:27,14.98351487,0.0003247,70.0012,30.8173,265.2511,94.8277,0.00080308,9.508e-05,0.0,0 STARLINK-5899,1 55949U 23037AM  24178.51837065  .00009508  00000-0  80308-3 0  9998,2 55949  70.0012  30.8173 0003247 265.2511  94.8277 14.98351487 71762,6950.126,96.106,574.248,569.735,0.0
55949.0,STARLINK-5899,PAYLOAD,2024-06-26 14:02:35,14.98354195,0.0003253,70.0012,30.6489,265.3887,94.6901,0.00084805,0.00010047,0.0,0 STARLINK-5899,1 55949U 23037AM  24178.58512939  .00010047  00000-0  84805-3 0  9991,2 55949  70.0012  30.6489 0003253 265.3887  94.6901 14.98354195 71439,6950.118,96.105,574.244,569.722,0.0
55949.0,STARLINK-5899,PAYLOAD,2024-06-26 22:03:14,14.98363215,0.0003254,70.0014,29.8072,265.6476,94.4311,0.00098693,0.00011713,0.0,0 STARLINK-5899,1 55949U 23037AM  24178.91892275  .00011713  00000-0  98693-3 0  9993,2 55949  70.0014  29.8072 0003254 265.6476  94.4311 14.98363215 71488,6950.09,96.105,574.217,569.694,0.0
55949.0,STARLINK-5899,PAYLOAD,2024-06-27 07:40:02,14.9835664,0.0003194,70.0015,28.7972,269.2121,90.8672,0.0005916,6.978e-05,0.0,0 STARLINK-5899,1 55949U 23037AM  24179.31947900  .00006978  00000-0  59160-3 0  9997,2 55949  70.0015  28.7972 0003194 269.2121  90.8672 14.98356640 71884,6950.111,96.105,574.195,569.756,0.0
55949.0,STARLINK-5899,PAYLOAD,2024-06-27 20:29:07,14.98341824,0.0003275,70.0016,27.4505,266.2685,93.8099,9.1434e-06,1.6e-07,0.0,0 STARLINK-5899,1 55949U 23037AM  24179.85355821  .00000016  00000-0  91434-5 0  9990,2 55949  70.0016  27.4505 0003275 266.2685  93.8099 14.98341824 71968,6950.156,96.106,574.298,569.745,0.0
55949.0,STARLINK-5899,PAYLOAD,2024-06-27 22:05:15,14.98342918,0.0003277,70.0014,27.2823,264.3931,95.6855,3.1211e-05,2.8e-06,0.0,0 STARLINK-5899,1 55949U 23037AM  24179.92031815  .00000280  00000-0  31211-4 0  9991,2 55949  70.0014  27.2823 0003277 264.3931  95.6855 14.98342918 71631,6950.153,96.106,574.296,569.74,0.0
55949.0,STARLINK-5899,PAYLOAD,2024-06-28 14:06:35,14.98343672,0.0003186,70.0009,25.5982,266.7612,93.3182,1.4154e-05,7.6e-07,0.0,0 STARLINK-5899,1 55949U 23037AM  24180.58791449  .00000076  00000-0  14154-4 0  9991,2 55949  70.0009  25.5982 0003186 266.7612  93.3182 14.98343672 71730,6950.151,96.106,574.23,569.801,0.0
55949.0,STARLINK-5899,PAYLOAD,2024-06-28 20:31:07,14.98343634,0.0003181,70.0009,24.9247,266.7675,93.312,6.7566e-05,7.14e-06,0.0,0 STARLINK-5899,1 55949U 23037AM  24180.85495257  .00000714  00000-0  67566-4 0  9993,2 55949  70.0009  24.9247 0003181 266.7675  93.3120 14.98343634 72114,6950.151,96.106,574.227,569.805,0.0
55949.0,STARLINK-5899,PAYLOAD,2024-06-28 22:07:15,14.98346767,0.0003166,70.001,24.7565,267.205,92.8746,0.00011165,1.24e-05,0.0,0 STARLINK-5899,1 55949U 23037AM  24180.92171021  .00001240  00000-0  11165-3 0  9999,2 55949  70.0010  24.7565 0003166 267.2050  92.8746 14.98346767 71783,6950.141,96.106,574.206,569.806,0.0
55949.0,STARLINK-5899,PAYLOAD,2024-06-29 12:32:29,14.98330264,0.0002803,70.0038,23.2465,290.7404,69.3454,0.00014168,1.598e-05,0.0,0 STARLINK-5899,1 55949U 23037AM  24181.52255981  .00001598  00000-0  14168-3 0  9996,2 55949  70.0038  23.2465 0002803 290.7404  69.3454 14.98330264 72216,6950.192,96.107,574.005,570.109,0.0
55949.0,STARLINK-5899,PAYLOAD,2024-06-29 14:08:37,14.98327055,0.0003131,70.0,23.0737,268.488,91.592,4.8642e-05,4.87e-06,0.0,0 STARLINK-5899,1 55949U 23037AM  24181.58932312  .00000487  00000-0  48642-4 0  9993,2 55949  70.0000  23.0737 0003131 268.4880  91.5920 14.98327055 71881,6950.202,96.107,574.243,569.891,0.0
55949.0,STARLINK-5899,PAYLOAD,2024-06-29 22:09:17,14.98321674,0.0003402,70.0012,22.2322,271.6076,88.4694,0.00016039,1.821e-05,0.0,0 STARLINK-5899,1 55949U 23037AM  24181.92312406  .00001821  00000-0  16039-3 0  9994,2 55949  70.0012  22.2322 0003402 271.6076  88.4694 14.98321674 71939,6950.219,96.108,574.448,569.719,0.0
55949.0,STARLINK-5899,PAYLOAD,2024-06-30 14:10:37,14.98336573,0.0003162,70.0013,20.5491,269.9338,90.1459,0.00015988,1.815e-05,0.0,0 STARLINK-5899,1 55949U 23037AM  24182.59071688  .00001815  00000-0  15988-3 0  9997,2 55949  70.0013  20.5491 0003162 269.9338  90.1459 14.98336573 72037,6950.173,96.107,574.235,569.84,0.0
